AMC-1 (GE-1)            
1 24315U 96054A   22047.44881774  .00000067  00000+0  00000+0 0  9998
2 24315   5.3334  74.1694 0003564 251.5987 211.2930  1.00272325 93160
AMC-3 (GE-3)            
1 24936U 97050A   22046.98799304 -.00000259  00000+0  00000+0 0  9993
2 24936   4.2475  80.6242 0003317 253.7302  95.2585  1.00272872 89589
ASTRA 1G                
1 25071U 97076A   22046.80352253  .00000117  00000+0  00000+0 0  9993
2 25071   5.9668  69.2087 0004138 253.9858 131.2209  1.00270384 88648
ASTRA 2A                
1 25462U 98050A   22046.87704748  .00000149  00000+0  00000+0 0  9992
2 25462   3.1005  86.8827 0002503 237.5760 165.0683  1.00273474 30470
AMC-4 (GE-4)            
1 25954U 99060A   22046.70106373  .00000089  00000+0  00000+0 0  9995
2 25954   1.2132  93.3029 0003307 238.1062 291.7233  1.00272783 27687
NSS-11 (AAP-1)          
1 26554U 00059A   22047.53154271  .00000026  00000+0  00000+0 0  9995
2 26554   0.0629 290.0555 0002754  51.3154 172.4547  1.00269086 78315
AMC-6 (GE-6)            
1 26580U 00067A   22046.90815466  .00000106  00000+0  00000+0 0  9992
2 26580   0.0609 291.1354 0002816  42.0559   0.5937  1.00270898 78054
ASTRA 2D                
1 26638U 00081A   22047.16328796  .00000132  00000+0  00000+0 0  9995
2 26638   7.0373  61.1149 0002171 263.1379 264.3766  1.00268329 77527
AMC-8 (GE-8)            
1 26639U 00081B   22046.70106373  .00000089  00000+0  00000+0 0  9991
2 26639   2.1419  89.9174 0002725 245.3340 287.7802  1.00272965 77460
ASTRA 2C                
1 26853U 01025A   22047.34495507 -.00000258  00000+0  00000+0 0  9998
2 26853   4.2740  80.4203 0003013 243.0042 234.5880  1.00273490 75718
ASTRA 3A                
1 27400U 02015B   22047.19853786 -.00000201  00000+0  00000+0 0  9995
2 27400   7.1433  59.9634 0001819 255.4044 175.4592  1.00270642 72859
NSS-7                   
1 27414U 02019A   22047.36990787 -.00000156  00000+0  00000+0 0  9995
2 27414   5.6180  72.2972 0002616 267.4835 279.6943  1.00271405 72693
NSS-6                   
1 27603U 02057A   22046.83771208  .00000109  00000+0  00000+0 0  9990
2 27603   1.3035  93.0862 0003521 236.0291 308.6968  1.00272913 70174
AMC-11 (GE-11)          
1 28252U 04017A   22046.70184869  .00000071  00000+0  00000+0 0  9994
2 28252   0.0644 292.7462 0003071  30.6223 303.9434  1.00270956 65012
AMC-15                  
1 28446U 04041A   22047.47093148 -.00000087  00000+0  00000+0 0  9998
2 28446   0.0123 298.1783 0002885  27.6266 245.1087  1.00270448 63486
NSS-10 (AMC-12)         
1 28526U 05003A   22046.93583253 -.00000250  00000+0  00000+0 0  9999
2 28526   2.4813  88.6724 0003300 227.0302 129.6311  1.00273111 62456
ASTRA 1KR               
1 29055U 06012A   22046.30117584  .00000122  00000+0  00000+0 0  9996
2 29055   0.0946 275.7086 0004195   5.2797 351.8938  1.00271248 29852
AMC-18                  
1 29644U 06054B   22047.33882106 -.00000214  00000+0  00000+0 0  9992
2 29644   0.0651 286.1639 0002680  43.2039 215.8872  1.00268544 55688
ASTRA 1L                
1 31306U 07016A   22046.94708368  .00000121  00000+0  00000+0 0  9998
2 31306   0.1196 290.1940 0005223  16.4487 199.4006  1.00271897 54170
ASTRA 4A (SIRIUS 4)     
1 32299U 07057A   22046.87242491  .00000034  00000+0  00000+0 0  9990
2 32299   0.0141 283.8830 0003054  40.0148 140.8339  1.00270615 35811
AMC-21                  
1 33275U 08038B   22047.45495069  .00000038  00000+0  00000+0 0  9995
2 33275   0.0585 291.7944 0002974  41.1359 212.3458  1.00273663 49603
ASTRA 1M                
1 33436U 08057A   22046.94708368  .00000122  00000+0  00000+0 0  9991
2 33436   0.0288 238.2517 0000789  97.2157 170.5568  1.00277133 48617
CIEL-2                  
1 33453U 08063A   22046.70228479  .00000060  00000+0  00000+0 0  9992
2 33453   0.0513 269.6189 0003246  65.0015 295.0040  1.00272178 48260
NSS-9                   
1 33749U 09008A   22046.83622937  .00000073  00000+0  00000+0 0  9995
2 33749   0.0167 287.3011 0002336  34.1913 308.4181  1.00269777 47666
SES-7 (PROTOSTAR 2)     
1 34941U 09027A   22047.39546281 -.00000343  00000+0  00000+0 0  9991
2 34941   0.0135 111.6792 0001879 179.9051 105.3916  1.00267794 46759
NSS-12                  
1 36032U 09058A   22047.24702373  .00000073  00000+0  00000+0 0  9997
2 36032   0.0080 258.4017 0002594  73.9847 319.7614  1.00271171 45054
SES-1                   
1 36516U 10016A   22047.19001514 -.00000113  00000+0  00000+0 0  9999
2 36516   0.0199 270.0823 0003020  68.2125 135.2745  1.00269789 43278
ASTRA 3B                
1 36581U 10021A   22046.87617529  .00000138  00000+0  00000+0 0  9996
2 36581   0.0568  63.1169 0004418 251.6056 170.0063  1.00269962 43012
SES-3                   
1 37748U 11035A   22046.67493888 -.00000100  00000+0  00000+0 0  9996
2 37748   0.0615 293.2617 0002777  32.9714 319.3686  1.00271155 38731
ASTRA 1N                
1 37775U 11041A   22046.94708368  .00000122  00000+0  00000+0 0  9998
2 37775   0.0549 330.4331 0004179  35.7623 139.8486  1.00274293 38539
SES-2                   
1 37809U 11049A   22046.56701691 -.00000193  00000+0  00000+0 0  9993
2 37809   0.0633 286.6137 0003561  47.8974 288.1283  1.00270719 38097
QUETZSAT 1              
1 37826U 11054A   22047.35848227 -.00000240  00000+0  00000+0 0  9996
2 37826   0.0123 278.4531 0002815  57.6434 222.2893  1.00275411 38234
SES-4                   
1 38087U 12007A   22046.93888517 -.00000167  00000+0  00000+0 0  9992
2 38087   0.0121  44.4578 0002330 282.1992 135.2162  1.00269762 36625
SES-5                   
1 38652U 12036A   22046.94429270  .00000035  00000+0  00000+0 0  9993
2 38652   0.0591 293.6141 0002179  28.9391 168.2670  1.00272054 35209
ASTRA 2F                
1 38778U 12051A   22046.80535411  .00000151  00000+0  00000+0 0  9998
2 38778   0.0921 253.1586 0003077  22.3855 188.3241  1.00270248 25254
SES-6                   
1 39172U 13026A   22047.36580861 -.00000260  00000+0  00000+0 0  9993
2 39172   0.0201 282.1380 0002521  51.5681 263.8308  1.00267940 31853
O3B FM5                 
1 39188U 13031A   22046.71916385 -.00000019  00000+0  00000+0 0  9990
2 39188   0.0319   6.4884 0002755 332.4535  21.0417  5.00116245157875
O3B FM4                 
1 39189U 13031B   22046.78485704 -.00000019  00000+0  00000+0 0  9994
2 39189   0.0592  13.1803 0002788 271.0109  75.7728  5.00116283157880
O3B FM2                 
1 39190U 13031C   22046.63747295 -.00000019  00000+0  00000+0 0  9996
2 39190   0.0641  14.7666 0005141 235.6250 109.5478  5.00116007157938
O3B PFM                 
1 39191U 13031D   22046.66431439 -.00000019  00000+0  00000+0 0  9990
2 39191   0.0409   7.7336 0002589 321.1180  31.1279  5.00115853157738
ASTRA 2E                
1 39285U 13056A   22046.80544133  .00000152  00000+0  00000+0 0  9990
2 39285   0.0806 321.0320 0002490   6.3510 136.8312  1.00276348 30574
SES-8                   
1 39460U 13071A   22047.39284625 -.00000267  00000+0  00000+0 0  9992
2 39460   0.0647 269.2859 0001649 102.7337  10.7317  1.00267194 30018
ASTRA 5B                
1 39617U 14011B   22046.80596465  .00000156  00000+0  00000+0 0  9990
2 39617   0.0602 311.1882 0004166   0.1484 156.0569  1.00273263 28808
O3B FM3                 
1 40079U 14038A   22046.77235542 -.00000019  00000+0  00000+0 0  9994
2 40079   0.0515  12.8050 0004321 342.5802   4.6057  5.00115406133879
O3B FM7                 
1 40080U 14038B   22046.71857130 -.00000019  00000+0  00000+0 0  9993
2 40080   0.0541  16.8101 0002007 264.0464  79.1158  5.00115984138710
O3B FM6                 
1 40081U 14038C   22046.54494060 -.00000019  00000+0  00000+0 0  9994
2 40081   0.0524  12.1449 0002631 314.6081  33.2253  5.00115543138657
O3B FM8                 
1 40082U 14038D   22043.60057288 -.00000023  00000+0  00000+0 0  9991
2 40082   0.0553  11.7855 0002786 311.0459  37.1442  5.00115545138629
O3B FM10                
1 40348U 14083A   22046.82484760 -.00000019  00000+0  00000+0 0  9997
2 40348   0.0456   5.0259 0002634 321.5401  33.4123  5.00115950130734
O3B FM11                
1 40349U 14083B   22046.83823293 -.00000019  00000+0  00000+0 0  9997
2 40349   0.0434  10.5101 0001933 309.8844  39.5862  5.00115288130741
O3B FM12                
1 40350U 14083C   22046.86539370 -.00000019  00000+0  00000+0 0  9992
2 40350   0.0444  10.2193 0002475 318.8724  30.8887  5.00115213130908
O3B FM9                 
1 40351U 14083D   22046.69243124 -.00000019  00000+0  00000+0 0  9993
2 40351   0.0426  11.7224 0002553 314.4813  33.7749  5.00115058130904
ASTRA 2G                
1 40364U 14089A   22047.30772130  .00000152  00000+0  00000+0 0  9993
2 40364   0.0175 349.5907 0003270  31.9588 263.7159  1.00274033 26152
SES-9                   
1 41380U 16013A   22046.96486659 -.00000343  00000+0  00000+0 0  9993
2 41380   0.0158 249.0256 0001375 137.6501 214.9222  1.00268666 21885
SES-10                  
1 42432U 17017A   22046.57111616 -.00000270  00000+0  00000+0 0  9991
2 42432   0.0214 107.3317 0002831 220.9371 315.9930  1.00268145 17874
SES-15                  
1 42709U 17026A   22047.47631021  .00000061  00000+0  00000+0 0  9992
2 42709   0.0254   8.9714 0000769 313.0036 226.7594  1.00271426 18324
SES-11 (ECHOSTAR 105)   
1 42967U 17063A   22047.47093198 -.00000087  00000+0  00000+0 0  9995
2 42967   0.0132 107.4166 0002807 212.2199 251.3545  1.00271505 15949
SES-14                  
1 43175U 18012B   22047.36441311 -.00000277  00000+0  00000+0 0  9995
2 43175   0.0189 111.3692 0001172 221.3115 257.3416  1.00270056 15183
O3B FM15                
1 43231U 18024A   22046.75864954 -.00000019  00000+0  00000+0 0  9999
2 43231   0.0470   1.0696 0002686 327.8542  31.0553  5.00115887 71865
O3B FM16                
1 43232U 18024B   22046.81198527 -.00000019  00000+0  00000+0 0  9993
2 43232   0.0482 356.2086 0002659 332.2183  31.5521  5.00115787 71788
O3B FM14                
1 43233U 18024C   22046.85153280 -.00000019  00000+0  00000+0 0  9995
2 43233   0.0493 354.8483 0002553 330.3951  34.7349  5.00116268 71789
O3B FM13                
1 43234U 18024D   22046.70486433 -.00000019  00000+0  00000+0 0  9999
2 43234   0.0266  21.9524 0002380 326.1316  11.9053  5.00115211 71902
SES-12                  
1 43488U 18049A   22046.67515991 -.00000268  00000+0  00000+0 0  9991
2 43488   0.0152  68.9151 0002555 223.7275 191.0409  1.00271959 13554
O3B FM20                
1 44112U 19020A   22046.87814498 -.00000019  00000+0  00000+0 0  9996
2 44112   0.0463   5.1547 0002342 326.3917  28.4358  5.00115359 52489
O3B FM19                
1 44113U 19020B   22046.70485521 -.00000019  00000+0  00000+0 0  9990
2 44113   0.0195 343.9304 0002576 318.1150  57.9245  5.00114837 52261
O3B FM17                
1 44114U 19020C   22046.58569864 -.00000019  00000+0  00000+0 0  9990
2 44114   0.0652 359.6824 0002681 330.9112  29.3862  5.00115375 52354
O3B FM18                
1 44115U 19020D   22046.33243568 -.00000019  00000+0  00000+0 0  9994
2 44115   0.0458   5.2401 0002810 321.9081  32.8291  5.00115730 52465
SES-17                  
1 49332U 21095A   22046.35474520 -.00000065  00000+0  00000+0 0  9992
2 49332   1.9404 255.7858 3692354 191.5881 155.9817  1.17126702  1954
